OBJECT_NAME,OBJECT_ID,EPOCH,MEAN_MOTION,ECCENTRICITY,INCLINATION,RA_OF_ASC_NODE,ARG_OF_PERICENTER,MEAN_ANOMALY,EPHEMERIS_TYPE,CLASSIFICATION_TYPE,NORAD_CAT_ID,ELEMENT_SET_NO,REV_AT_EPOCH,BSTAR,MEAN_MOTION_DOT,MEAN_MOTION_DDOT
IRIDIUM 156,2018-061H,2026-07-01T01:42:26.413920,14.34220642,.0002007,86.3947,50.9230,87.0434,273.0991,0,U,43576,999,41536,.8293E-4,.252E-5,0
IRIDIUM 164,2018-061J,2026-07-01T02:55:30.489888,14.34217433,.0002148,86.3947,50.9420,89.8790,270.2652,0,U,43577,999,41541,-.9698E-5,-.7E-7,0
IRIDIUM 159,2018-061K,2026-07-01T02:09:50.478048,14.34217678,.0002115,86.3945,50.8916,84.4492,275.6945,0,U,43578,999,41537,.30526E-5,.28E-6,0
IRIDIUM 180,2019-002A,2026-07-01T00:28:38.932320,14.34217756,.0002229,86.3977,347.8140,89.3630,270.7821,0,U,43922,999,39097,.22904E-5,.26E-6,0
IRIDIUM 176,2019-002B,2026-07-01T03:50:54.167424,14.72233246,.0002387,86.6097,347.6966,88.0982,272.0508,0,U,43923,999,40130,.13366E-3,.867E-5,0
IRIDIUM 168,2019-002C,2026-06-30T20:58:34.546080,14.34218199,.000222,86.3981,347.9525,90.1812,269.9638,0,U,43924,999,39093,.57357E-4,.18E-5,0
IRIDIUM 173,2019-002D,2026-07-01T00:01:14.951136,14.34217414,.000204,86.3974,347.7882,89.1821,270.9609,0,U,43925,999,39093,-.97336E-5,-.7E-7,0
IRIDIUM 169,2019-002E,2026-07-01T02:15:07.647264,14.38610156,.0001635,86.4217,19.3778,87.5343,272.6042,0,U,43926,999,39222,.98671E-4,.322E-5,0
IRIDIUM 172,2019-002F,2026-06-30T23:52:06.957408,14.34217274,.000222,86.3976,347.7985,89.3549,270.7901,0,U,43927,999,39094,.77107E-5,.41E-6,0
IRIDIUM 175,2019-002G,2026-07-01T00:00:13.817088,14.43620361,.000419,86.4518,284.7471,144.3625,215.7856,0,U,43928,999,40097,.93803E-4,.338E-5,0
IRIDIUM 171,2019-002H,2026-07-01T04:26:06.952416,14.34217440,.0002032,86.3982,348.0267,94.2830,265.8598,0,U,43929,999,39096,-.5328E-5,.5E-7,0
IRIDIUM 170,2019-002J,2026-07-01T03:59:47.721120,14.72233747,.0002445,86.6096,347.6963,84.8340,275.3156,0,U,43930,999,40131,.13298E-3,.863E-5,0
IRIDIUM 167,2019-002K,2026-07-01T04:16:58.892160,14.34217892,.0002056,86.3977,347.7441,98.2647,261.8782,0,U,43931,999,39096,.98157E-5,.47E-6,0
IRIDIUM 181,2023-068S,2026-07-01T02:39:49.408992,14.43313677,.0002446,86.4485,50.9692,86.5722,273.5759,0,U,56726,999,16444,.94356E-4,.338E-5,0
IRIDIUM 177,2023-068T,2026-07-01T02:44:04.797024,14.80043741,.0002328,86.1975,322.1773,89.5434,270.6053,0,U,56727,999,16842,.14644E-3,.1134E-4,0
IRIDIUM 174,2023-068U,2026-06-30T21:10:29.703936,14.72240877,.000229,86.6106,347.9640,80.1675,279.9800,0,U,56728,999,16803,.13025E-3,.846E-5,0
IRIDIUM 178,2023-068V,2026-07-01T00:50:49.622784,14.80045294,.0002501,86.6532,19.5716,85.6564,274.4943,0,U,56729,999,16841,.14948E-3,.1157E-4,0
IRIDIUM 179,2023-068W,2026-07-01T02:20:34.419840,14.80062654,.0002436,86.6765,28.5668,87.6608,272.4893,0,U,56730,999,16842,.14273E-3,.1106E-4,0
