IRIDIUM 156             
1 43576U 18061H   26182.07113905  .00000252  00000+0  82930-4 0  9990
2 43576  86.3947  50.9230 0002007  87.0434 273.0991 14.34220642415366
IRIDIUM 164             
1 43577U 18061J   26182.12188067 -.00000007  00000+0 -96980-5 0  9999
2 43577  86.3947  50.9420 0002148  89.8790 270.2652 14.34217433415412
IRIDIUM 159             
1 43578U 18061K   26182.09016757  .00000028  00000+0  30526-5 0  9997
2 43578  86.3945  50.8916 0002115  84.4492 275.6945 14.34217678415374
IRIDIUM 180             
1 43922U 19002A   26182.01989505  .00000026  00000+0  22904-5 0  9997
2 43922  86.3977 347.8140 0002229  89.3630 270.7821 14.34217756390978
IRIDIUM 176             
1 43923U 19002B   26182.16034916  .00000867  00000+0  13366-3 0  9994
2 43923  86.6097 347.6966 0002387  88.0982 272.0508 14.72233246401301
IRIDIUM 168             
1 43924U 19002C   26181.87401095  .00000180  00000+0  57357-4 0  9995
2 43924  86.3981 347.9525 0002220  90.1812 269.9638 14.34218199390930
IRIDIUM 173             
1 43925U 19002D   26182.00086749 -.00000007  00000+0 -97336-5 0  9999
2 43925  86.3974 347.7882 0002040  89.1821 270.9609 14.34217414390934
IRIDIUM 169             
1 43926U 19002E   26182.09383851  .00000322  00000+0  98671-4 0  9993
2 43926  86.4217  19.3778 0001635  87.5343 272.6042 14.38610156392220
IRIDIUM 172             
1 43927U 19002F   26181.99452497  .00000041  00000+0  77107-5 0  9995
2 43927  86.3976 347.7985 0002220  89.3549 270.7901 14.34217274390949
IRIDIUM 175             
1 43928U 19002G   26182.00015992  .00000338  00000+0  93803-4 0  9993
2 43928  86.4518 284.7471 0004190 144.3625 215.7856 14.43620361400976
IRIDIUM 171             
1 43929U 19002H   26182.18480269  .00000005  00000+0 -53280-5 0  9994
2 43929  86.3982 348.0267 0002032  94.2830 265.8598 14.34217440390968
IRIDIUM 170             
1 43930U 19002J   26182.16652455  .00000863  00000+0  13298-3 0  9996
2 43930  86.6096 347.6963 0002445  84.8340 275.3156 14.72233747401314
IRIDIUM 167             
1 43931U 19002K   26182.17845940  .00000047  00000+0  98157-5 0  9994
2 43931  86.3977 347.7441 0002056  98.2647 261.8782 14.34217892390963
IRIDIUM 181             
1 56726U 23068S   26182.11098853  .00000338  00000+0  94356-4 0  9993
2 56726  86.4485  50.9692 0002446  86.5722 273.5759 14.43313677164446
IRIDIUM 177             
1 56727U 23068T   26182.11394441  .00001134  00000+0  14644-3 0  9992
2 56727  86.1975 322.1773 0002328  89.5434 270.6053 14.80043741168424
IRIDIUM 174             
1 56728U 23068U   26181.88228824  .00000846  00000+0  13025-3 0  9998
2 56728  86.6106 347.9640 0002290  80.1675 279.9800 14.72240877168035
IRIDIUM 178             
1 56729U 23068V   26182.03529656  .00001157  00000+0  14948-3 0  9995
2 56729  86.6532  19.5716 0002501  85.6564 274.4943 14.80045294168412
IRIDIUM 179             
1 56730U 23068W   26182.09762060  .00001106  00000+0  14273-3 0  9996
2 56730  86.6765  28.5668 0002436  87.6608 272.4893 14.80062654168428
